[Satellite]
VERSION=1.1
NAME=IRIDIUM 121 [+]
NICKNAME=IRIDIUM 121 [+]
TLE1=1 42812U 17039K   20157.64531532  .00000086  00000-0  23806-4 0  9998
TLE2=2 42812  86.4001 194.0608 0002484  89.3413 270.8067 14.34216174154139
STATUS=0
